CTC1_L_00598007-03
1 21679U 26480M   26037.47810185  .00000000  00000+0  00000-0 0  9996
2 21679  55.0000 180.0000 0000000   0.0000 144.0000  5.61059952    18
CTC1_L_00598007-04
1 21680U 26207WK  26037.47810185  .00000000  00000+0  00000-0 0  9995
2 21680  55.0000 180.0000 0000000   0.0000 180.0000  5.61059952    10
CTC1_L_00598007-05
1 21681U 24913OO  26037.47810185  .00000000  00000+0  00000-0 0  9998
2 21681  55.0000 180.0000 0000000   0.0000 216.0000  5.61059952    11
CTC1_L_00598007-06
1 21682U 25171AV  26037.47810185  .00000000  00000+0  00000-0 0  9996
2 21682  55.0000 180.0000 0000000   0.0000 252.0000  5.61059952    12
CTC1_L_00598007-07
1 21683U 23858AL  26037.47810185  .00000000  00000+0  00000-0 0  9997
2 21683  55.0000 180.0000 0000000   0.0000 288.0000  5.61059952    12
CTC1_L_00598007-08
1 21684U 25727QY  26037.47810185  .00000000  00000+0  00000-0 0  9995
2 21684  55.0000 180.0000 0000000   0.0000 324.0000  5.61059952    14
CTC1_L_00598007-09
1 21685U 24389JB  26037.47810185  .00000000  00000+0  00000-0 0  9999
2 21685  55.0000 180.0000 0000000   0.0000   0.0000  5.61059952    16
CTC1_L_00598007-10
1 21686U 26257MB  26037.47810185  .00000000  00000+0  00000-0 0  9996
2 21686  55.0000 180.0000 0000000   0.0000  36.0000  5.61059952    16
CTC1_L_00598008-01
1 21687U 24746LK  26037.47810185  .00000000  00000+0  00000-0 0  9998
2 21687  55.0000 210.0000 0000000   0.0000  84.0000  5.61059952    14
CTC1_L_00598008-02
1 21688U 22468HU  26037.47810185  .00000000  00000+0  00000-0 0  9998
2 21688  55.0000 210.0000 0000000   0.0000 120.0000  5.61059952    16
CTC1_L_00598008-03
1 21689U 23277YH  26037.47810185  .00000000  00000+0  00000-0 0  9998
2 21689  55.0000 210.0000 0000000   0.0000 156.0000  5.61059952    16
CTC1_L_00598008-04
1 21690U 24679NF  26037.47810185  .00000000  00000+0  00000-0 0  9997
2 21690  55.0000 210.0000 0000000   0.0000 192.0000  5.61059952    18
CTC1_L_00598008-05
1 21691U 23092BN  26037.47810185  .00000000  00000+0  00000-0 0  9996
2 21691  55.0000 210.0000 0000000   0.0000 228.0000  5.61059952    19
CTC1_L_00598008-06
1 21692U 25972UY  26037.47810185  .00000000  00000+0  00000-0 0  9996
2 21692  55.0000 210.0000 0000000   0.0000 264.0000  5.61059952    10
CTC1_L_00598008-07
1 21693U 26239ZZ  26037.47810185  .00000000  00000+0  00000-0 0  9994
2 21693  55.0000 210.0000 0000000   0.0000 300.0000  5.61059952    12
CTC1_L_00598008-08
1 21694U 23655CY  26037.47810185  .00000000  00000+0  00000-0 0  9994
2 21694  55.0000 210.0000 0000000   0.0000 336.0000  5.61059952    12
CTC1_L_00598008-09
1 21695U 25535ZY  26037.47810185  .00000000  00000+0  00000-0 0  9994
2 21695  55.0000 210.0000 0000000   0.0000  12.0000  5.61059952    14
CTC1_L_00598008-10
1 21696U 22727TW  26037.47810185  .00000000  00000+0  00000-0 0  9995
2 21696  55.0000 210.0000 0000000   0.0000  48.0000  5.61059952    14
CTC1_L_00598009-01
1 21697U 23422OO  26037.47810185  .00000000  00000+0  00000-0 0  9999
2 21697  55.0000 240.0000 0000000   0.0000  96.0000  5.61059952    11
CTC1_L_00598009-02
1 21698U 23613VN  26037.47810185  .00000000  00000+0  00000-0 0  9992
2 21698  55.0000 240.0000 0000000   0.0000 132.0000  5.61059952    13
CTC1_L_00598009-03
1 21699U 25170PA  26037.47810185  .00000000  00000+0  00000-0 0  9993
2 21699  55.0000 240.0000 0000000   0.0000 168.0000  5.61059952    13
CTC1_L_00598009-04
1 21700U 24053ZM  26037.47810185  .00000000  00000+0  00000-0 0  9995
2 21700  55.0000 240.0000 0000000   0.0000 204.0000  5.61059952    17
CTC1_L_00598009-05
1 21701U 25093IA  26037.47810185  .00000000  00000+0  00000-0 0  9991
2 21701  55.0000 240.0000 0000000   0.0000 240.0000  5.61059952    18
CTC1_L_00598009-06
1 21702U 25742GA  26037.47810185  .00000000  00000+0  00000-0 0  9993
2 21702  55.0000 240.0000 0000000   0.0000 276.0000  5.61059952    18
CTC1_L_00598009-07
1 21703U 24135TP  26037.47810185  .00000000  00000+0  00000-0 0  9999
2 21703  55.0000 240.0000 0000000   0.0000 312.0000  5.61059952    10
CTC1_L_00598009-08
1 21704U 23160SC  26037.47810185  .00000000  00000+0  00000-0 0  9997
2 21704  55.0000 240.0000 0000000   0.0000 348.0000  5.61059952    10
CTC1_L_00598009-09
1 21705U 25847MB  26037.47810185  .00000000  00000+0  00000-0 0  9992
2 21705  55.0000 240.0000 0000000   0.0000  24.0000  5.61059952    12
CTC1_L_00598009-10
1 21706U 25431Y   26037.47810185  .00000000  00000+0  00000-0 0  9992
2 21706  55.0000 240.0000 0000000   0.0000  60.0000  5.61059952    13
CTC1_L_00598010-01
1 21707U 26929GK  26037.47810185  .00000000  00000+0  00000-0 0  9996
2 21707  55.0000 270.0000 0000000   0.0000 108.0000  5.61059952    10
CTC1_L_00598010-02
1 21708U 25229QH  26037.47810185  .00000000  00000+0  00000-0 0  9999
2 21708  55.0000 270.0000 0000000   0.0000 144.0000  5.61059952    11
CTC1_L_00598010-03
1 21709U 26284EE  26037.47810185  .00000000  00000+0  00000-0 0  9992
2 21709  55.0000 270.0000 0000000   0.0000 180.0000  5.61059952    12
CTC1_L_00598010-04
1 21710U 25723JW  26037.47810185  .00000000  00000+0  00000-0 0  9991
2 21710  55.0000 270.0000 0000000   0.0000 216.0000  5.61059952    14
CTC1_L_00598010-05
1 21711U 25958EW  26037.47810185  .00000000  00000+0  00000-0 0  9992
2 21711  55.0000 270.0000 0000000   0.0000 252.0000  5.61059952    15
CTC1_L_00598010-06
1 21712U 24928FX  26037.47810185  .00000000  00000+0  00000-0 0  9999
2 21712  55.0000 270.0000 0000000   0.0000 288.0000  5.61059952    15
CTC1_L_00598010-07
1 21713U 23480HS  26037.47810185  .00000000  00000+0  00000-0 0  9992
2 21713  55.0000 270.0000 0000000   0.0000 324.0000  5.61059952    17
CTC1_L_00598010-08
1 21714U 25217MO  26037.47810185  .00000000  00000+0  00000-0 0  9993
2 21714  55.0000 270.0000 0000000   0.0000   0.0000  5.61059952    19
CTC1_L_00598010-09
1 21715U 22726NU  26037.47810185  .00000000  00000+0  00000-0 0  9996
2 21715  55.0000 270.0000 0000000   0.0000  36.0000  5.61059952    19
CTC1_L_00598010-10
1 21716U 22672MH  26037.47810185  .00000000  00000+0  00000-0 0  9997
2 21716  55.0000 270.0000 0000000   0.0000  72.0000  5.61059952    10
CTC1_L_00598011-01
1 21717U 25511RT  26037.47810185  .00000000  00000+0  00000-0 0  9993
2 21717  55.0000 300.0000 0000000   0.0000 120.0000  5.61059952    19
CTC1_L_00598011-02
1 21718U 23726FW  26037.47810185  .00000000  00000+0  00000-0 0  9990
2 21718  55.0000 300.0000 0000000   0.0000 156.0000  5.61059952    19
CTC1_L_00598011-03
1 21719U 23744DI  26037.47810185  .00000000  00000+0  00000-0 0  9991
2 21719  55.0000 300.0000 0000000   0.0000 192.0000  5.61059952    10
CTC1_L_00598011-04
1 21720U 23162LH  26037.47810185  .00000000  00000+0  00000-0 0  9997
2 21720  55.0000 300.0000 0000000   0.0000 228.0000  5.61059952    12
CTC1_L_00598011-05
1 21721U 25681VD  26037.47810185  .00000000  00000+0  00000-0 0  9996
2 21721  55.0000 300.0000 0000000   0.0000 264.0000  5.61059952    13
CTC1_L_00598011-06
1 21722U 26976JV  26037.47810185  .00000000  00000+0  00000-0 0  9995
2 21722  55.0000 300.0000 0000000   0.0000 300.0000  5.61059952    15
CTC1_L_00598011-07
1 21723U 24222GK  26037.47810185  .00000000  00000+0  00000-0 0  9998
2 21723  55.0000 300.0000 0000000   0.0000 336.0000  5.61059952    15
CTC1_L_00598011-08
1 21724U 23015WD  26037.47810185  .00000000  00000+0  00000-0 0  9998
2 21724  55.0000 300.0000 0000000   0.0000  12.0000  5.61059952    17
CTC1_L_00598011-09
1 21725U 23471CB  26037.47810185  .00000000  00000+0  00000-0 0  9995
2 21725  55.0000 300.0000 0000000   0.0000  48.0000  5.61059952    17
CTC1_L_00598011-10
1 21726U 24825AF  26037.47810185  .00000000  00000+0  00000-0 0  9990
2 21726  55.0000 300.0000 0000000   0.0000  84.0000  5.61059952    18
CTC1_L_00598012-01
1 21727U 24284QK  26037.47810185  .00000000  00000+0  00000-0 0  9990
2 21727  55.0000 330.0000 0000000   0.0000 132.0000  5.61059952    16
CTC1_L_00598012-02
1 21728U 26632XJ  26037.47810185  .00000000  00000+0  00000-0 0  9990
2 21728  55.0000 330.0000 0000000   0.0000 168.0000  5.61059952    16
CTC1_L_00598012-03
1 21729U 22855XV  26037.47810185  .00000000  00000+0  00000-0 0  9994
2 21729  55.0000 330.0000 0000000   0.0000 204.0000  5.61059952    18
CTC1_L_00598012-04
1 21730U 25106LJ  26037.47810185  .00000000  00000+0  00000-0 0  9998
2 21730  55.0000 330.0000 0000000   0.0000 240.0000  5.61059952    10
CTC1_L_00598012-05
1 21731U 26828NY  26037.47810185  .00000000  00000+0  00000-0 0  9991
2 21731  55.0000 330.0000 0000000   0.0000 276.0000  5.61059952    10
CTC1_L_00598012-06
1 21732U 25177RZ  26037.47810185  .00000000  00000+0  00000-0 0  9998
2 21732  55.0000 330.0000 0000000   0.0000 312.0000  5.61059952    12
CTC1_L_00598012-07
1 21733U 24634HS  26037.47810185  .00000000  00000+0  00000-0 0  9996
2 21733  55.0000 330.0000 0000000   0.0000 348.0000  5.61059952    12
CTC1_L_00598012-08
1 21734U 26094FT  26037.47810185  .00000000  00000+0  00000-0 0  9999
2 21734  55.0000 330.0000 0000000   0.0000  24.0000  5.61059952    14
CTC1_L_00598012-09
1 21735U 22526XY  26037.47810185  .00000000  00000+0  00000-0 0  9996
2 21735  55.0000 330.0000 0000000   0.0000  60.0000  5.61059952    15
CTC1_L_00598012-10
1 21736U 23844H   26037.47810185  .00000000  00000+0  00000-0 0  9991
2 21736  55.0000 330.0000 0000000   0.0000  96.0000  5.61059952    15
